$$SOE
2461302.500000000, A.D. 2026-Sep-19 00:00:00.0000, 2.989148742560737E+08, 3.480772427106220E+08, -6.780930197817566E+07,
2461309.500000000, A.D. 2026-Sep-26 00:00:00.0000, 2.907657585064854E+08, 3.545118943421644E+08, -6.675032070111173E+07,
2461316.500000000, A.D. 2026-Oct-03 00:00:00.0000, 2.824747219885219E+08, 3.607735006409402E+08, -6.565875837774459E+07,
2461323.500000000, A.D. 2026-Oct-10 00:00:00.0000, 2.740454053619881E+08, 3.668584872265009E+08, -6.453505371647348E+07,
2461330.500000000, A.D. 2026-Oct-17 00:00:00.0000, 2.654815475226883E+08, 3.727633567827299E+08, -6.337966583065164E+07,
2461337.500000000, A.D. 2026-Oct-24 00:00:00.0000, 2.567869839861208E+08, 3.784846923213612E+08, -6.219307414221585E+07,
2461344.500000000, A.D. 2026-Oct-31 00:00:00.0000, 2.479656452356956E+08, 3.840191602627707E+08, -6.097577828576896E+07,
2461351.500000000, A.D. 2026-Nov-07 00:00:00.0000, 2.390215553749199E+08, 3.893635134019837E+08, -5.972829803762108E+07,
2461358.500000000, A.D. 2026-Nov-14 00:00:00.0000, 2.299588312851491E+08, 3.945145946400074E+08, -5.845117321498898E+07,
2461365.500000000, A.D. 2026-Nov-21 00:00:00.0000, 2.207816804764431E+08, 3.994693421526286E+08, -5.714496332206659E+07,
2461372.500000000, A.D. 2026-Nov-28 00:00:00.0000, 2.114943966296262E+08, 4.042247929801968E+08, -5.581024709540607E+07,
2461379.500000000, A.D. 2026-Dec-05 00:00:00.0000, 2.021013564476929E+08, 4.087780843790087E+08, -5.444762233387293E+07,
2461386.500000000, A.D. 2026-Dec-12 00:00:00.0000, 1.926070179832804E+08, 4.131264560413765E+08, -5.305770577438085E+07,
2461393.500000000, A.D. 2026-Dec-19 00:00:00.0000, 1.830159185562781E+08, 4.172672531854314E+08, -5.164113283975872E+07,
2461400.500000000, A.D. 2026-Dec-26 00:00:00.0000, 1.733326721210969E+08, 4.211979296417649E+08, -5.019855731677395E+07,
2461407.500000000, A.D. 2027-Jan-02 00:00:00.0000, 1.635619663620635E+08, 4.249160507408459E+08, -4.873065100547209E+07,
2461414.500000000, A.D. 2027-Jan-09 00:00:00.0000, 1.537085596364475E+08, 4.284192960155444E+08, -4.723810334909615E+07,
2461421.500000000, A.D. 2027-Jan-16 00:00:00.0000, 1.437772778025927E+08, 4.317054617213147E+08, -4.572162104721445E+07,
2461428.500000000, A.D. 2027-Jan-23 00:00:00.0000, 1.337730109808975E+08, 4.347724631280065E+08, -4.418192765961270E+07,
2461435.500000000, A.D. 2027-Jan-30 00:00:00.0000, 1.237007104369517E+08, 4.376183365293182E+08, -4.261976322224420E+07,
2461442.500000000, A.D. 2027-Feb-06 00:00:00.0000, 1.135653860133748E+08, 4.402412413044183E+08, -4.103588388678794E+07,
2461449.500000000, A.D. 2027-Feb-13 00:00:00.0000, 1.033721036530871E+08, 4.426394632462838E+08, -3.943106144259639E+07,
2461456.500000000, A.D. 2027-Feb-20 00:00:00.0000, 9.312598065373187E+07, 4.448114183582890E+08, -3.780608256923355E+07,
2461463.500000000, A.D. 2027-Feb-27 00:00:00.0000, 8.283218005054778E+07, 4.467556538981611E+08, -3.616174821026906E+07,
2461470.500000000, A.D. 2027-Mar-06 00:00:00.0000, 7.249590714907296E+07, 4.484708485895790E+08, -3.449887318910524E+07,
2461477.500000000, A.D. 2027-Mar-13 00:00:00.0000, 6.212240661376610E+07, 4.499558140471465E+08, -3.281828575379899E+07,
2461484.500000000, A.D. 2027-Mar-20 00:00:00.0000, 5.171695898858064E+07, 4.512094965744094E+08, -3.112082701619214E+07,
2461491.500000000, A.D. 2027-Mar-27 00:00:00.0000, 4.128487685664663E+07, 4.522309787812485E+08, -2.940735034947893E+07,
2461498.500000000, A.D. 2027-Apr-03 00:00:00.0000, 3.083150084759653E+07, 4.530194809689929E+08, -2.767872076760870E+07,
2461505.500000000, A.D. 2027-Apr-10 00:00:00.0000, 2.036219555981167E+07, 4.535743623027527E+08, -2.593581429119202E+07,
2461512.500000000, A.D. 2027-Apr-17 00:00:00.0000, 9.882345425951334E+06, 4.538951217533478E+08, -2.417951730406323E+07,
2461519.500000000, A.D. 2027-Apr-24 00:00:00.0000, -6.026493925798846E+05, 4.539813987436215E+08, -2.241072591381547E+07,
2461526.500000000, A.D. 2027-May-01 00:00:00.0000, -1.108737677614441E+07, 4.538329735243325E+08, -2.063034534251326E+07,
2461533.500000000, A.D. 2027-May-08 00:00:00.0000, -2.156641576848984E+07, 4.534497680264254E+08, -1.883928931572875E+07,
2461540.500000000, A.D. 2027-May-15 00:00:00.0000, -3.203434053878213E+07, 4.528318481424733E+08, -1.703847923600042E+07,
2461547.500000000, A.D. 2027-May-22 00:00:00.0000, -4.248572673935837E+07, 4.519794248425267E+08, -1.522884321005484E+07,
2461554.500000000, A.D. 2027-May-29 00:00:00.0000, -5.291515689768007E+07, 4.508928526525140E+08, -1.341131535820210E+07,
2461561.500000000, A.D. 2027-Jun-05 00:00:00.0000, -6.331722395202573E+07, 4.495726286286789E+08, -1.158683523246014E+07,
2461568.500000000, A.D. 2027-Jun-12 00:00:00.0000, -7.368653493018346E+07, 4.480193922610870E+08, -9.756347125389278E+06,
2461575.500000000, A.D. 2027-Jun-19 00:00:00.0000, -8.401771509443741E+07, 4.462339253706759E+08, -7.920799316707373E+06,
2461582.500000000, A.D. 2027-Jun-26 00:00:00.0000, -9.430541226641938E+07, 4.442171517388602E+08, -6.081143305668771E+06,
2461589.500000000, A.D. 2027-Jul-03 00:00:00.0000, -1.045443011925485E+08, 4.419701364792917E+08, -4.238333041693300E+06,
2461596.500000000, A.D. 2027-Jul-10 00:00:00.0000, -1.147290879056558E+08, 4.394940851622396E+08, -2.393324156959921E+06,
2461603.500000000, A.D. 2027-Jul-17 00:00:00.0000, -1.248545140384144E+08, 4.367903426543665E+08, -5.470732084835768E+05,
2461610.500000000, A.D. 2027-Jul-24 00:00:00.0000, -1.349153609239244E+08, 4.338603916121154E+08, 1.299463049854547E+06,
2461617.500000000, A.D. 2027-Jul-31 00:00:00.0000, -1.449064530644494E+08, 4.307058508645937E+08, 3.145328345867723E+06,
2461624.500000000, A.D. 2027-Aug-07 00:00:00.0000, -1.548226611630876E+08, 4.273284748388634E+08, 4.989567629664510E+06,
2461631.500000000, A.D. 2027-Aug-14 00:00:00.0000, -1.646589070140551E+08, 4.237301537777544E+08, 6.831228065349400E+06,
2461638.500000000, A.D. 2027-Aug-21 00:00:00.0000, -1.744101696267956E+08, 4.199129113886827E+08, 8.669359940973908E+06,
2461645.500000000, A.D. 2027-Aug-28 00:00:00.0000, -1.840714891486298E+08, 4.158789011295191E+08, 1.050301727928436E+07,
2461652.500000000, A.D. 2027-Sep-04 00:00:00.0000, -1.936379697632874E+08, 4.116304036416013E+08, 1.233125846062765E+07,
2461659.500000000, A.D. 2027-Sep-11 00:00:00.0000, -2.031047829537951E+08, 4.071698246758249E+08, 1.415314693043140E+07,
2461666.500000000, A.D. 2027-Sep-18 00:00:00.0000, -2.124671709895645E+08, 4.024996928663211E+08, 1.596775192455789E+07,
2461673.500000000, A.D. 2027-Sep-25 00:00:00.0000, -2.217204504029672E+08, 3.976226572784954E+08, 1.777414918388370E+07,
2461680.500000000, A.D. 2027-Oct-02 00:00:00.0000, -2.308600153752068E+08, 3.925414847638707E+08, 1.957142165216243E+07,
2461687.500000000, A.D. 2027-Oct-09 00:00:00.0000, -2.398813410043214E+08, 3.872590571225479E+08, 2.135866015346679E+07,
2461694.500000000, A.D. 2027-Oct-16 00:00:00.0000, -2.487799863877524E+08, 3.817783680240412E+08, 2.313496403771597E+07,
2461701.500000000, A.D. 2027-Oct-23 00:00:00.0000, -2.575515972555249E+08, 3.761025196865846E+08, 2.489944176884724E+07,
2461708.500000000, A.D. 2027-Oct-30 00:00:00.0000, -2.661919077758245E+08, 3.702347199311308E+08, 2.665121147009991E+07,
2461715.500000000, A.D. 2027-Nov-06 00:00:00.0000, -2.746967426940057E+08, 3.641782807449683E+08, 2.838940162437147E+07,
2461722.500000000, A.D. 2027-Nov-13 00:00:00.0000, -2.830620217877165E+08, 3.579366162868830E+08, 3.011315194121373E+07,
2461729.500000000, A.D. 2027-Nov-20 00:00:00.0000, -2.912837637313584E+08, 3.515132381537052E+08, 3.182161394488332E+07,
2461736.500000000, A.D. 2027-Nov-27 00:00:00.0000, -2.993580877500271E+08, 3.449117508765506E+08, 3.351395137668297E+07,
2461743.500000000, A.D. 2027-Dec-04 00:00:00.0000, -3.072812150867777E+08, 3.381358485680650E+08, 3.518934067132206E+07,
2461750.500000000, A.D. 2027-Dec-11 00:00:00.0000, -3.150494708324344E+08, 3.311893117647744E+08, 3.684697147852619E+07,
2461757.500000000, A.D. 2027-Dec-18 00:00:00.0000, -3.226592858412102E+08, 3.240760041320519E+08, 3.848604717654690E+07,
2461764.500000000, A.D. 2027-Dec-25 00:00:00.0000, -3.301071985791689E+08, 3.167998690358386E+08, 4.010578536311893E+07,
2461771.500000000, A.D. 2028-Jan-01 00:00:00.0000, -3.373898568637020E+08, 3.093649260021762E+08, 4.170541832101487E+07,
$$EOE